tleArray_g = [ {"id": 47055, "Line1": "1 47055U 93036BXK 21271.00562765  .00002138  00000-0  56535-3 0  9997", "Line2": "2 47055  74.0049 145.8922 0033282 205.8596 218.8891 14.49150068496049"}, {"id": 47056, "Line1": "1 47056U 93036BXL 21272.32862321  .00005987  00000-0  86308-3 0  9991", "Line2": "2 47056  74.0340 289.5472 0034077 205.9549 166.9824 14.76114992508669"}, {"id": 47058, "Line1": "1 47058U 93036BXN 21270.74321864  .00002774  00000-0  63365-3 0  9998", "Line2": "2 47058  74.0116  81.5483 0027189 156.9701 203.2689 14.56005685508395"}, {"id": 47059, "Line1": "1 47059U 93036BXP 21272.48578272  .00001300  00000-0  29883-3 0  9990", "Line2": "2 47059  74.0056 346.3882 0036900 168.3751 204.5122 14.56088278416581"}, {"id": 47060, "Line1": "1 47060U 93036BXQ 21274.29318581  .00003050  00000-0  32987-3 0  9991", "Line2": "2 47060  73.7123 248.0333 0111478 145.5869 279.5131 14.84317774375879"}, {"id": 47061, "Line1": "1 47061U 93036BXR 21272.53041848  .00001135  00000-0  24342-3 0  9994", "Line2": "2 47061  74.0202 317.7309 0060331 218.6662 211.3551 14.58776403417420"}, {"id": 47062, "Line1": "1 47062U 93036BXS 21270.21856051  .00000340  00000-0  29881-3 0  9998", "Line2": "2 47062  74.0817  78.7717 0336613 195.5668 340.9703 13.65879075345714"}, {"id": 47063, "Line1": "1 47063U 93036BXT 21272.32858240  .00005304  00000-0  64085-3 0  9995", "Line2": "2 47063  73.9715 115.0559 0023698 337.6027 196.6358 14.83802192516600"}, {"id": 47064, "Line1": "1 47064U 93036BXU 21272.54827582  .00004803  00000-0  69258-3 0  9995", "Line2": "2 47064  74.0022 196.5833 0022623  33.8655 140.4336 14.76398385513541"}, {"id": 47065, "Line1": "1 47065U 93036BXV 21274.09944708  .00003535  00000-0  81449-3 0  9995", "Line2": "2 47065  74.0280  65.0221 0021296 136.4904 343.5894 14.55569093402221"}, {"id": 47066, "Line1": "1 47066U 93036BXW 21265.38904451  .00003127  00000-0  67250-3 0  9990", "Line2": "2 47066  74.0101 158.7014 0103290 279.6856  79.2652 14.55689312618114"}, {"id": 47067, "Line1": "1 47067U 93036BXX 21274.74486997  .00001919  00000-0  11211-2 0  9993", "Line2": "2 47067  74.2300 271.1551 0278092 196.2849 339.4733 13.91411395485254"}, {"id": 47068, "Line1": "1 47068U 93036BXY 21274.49068269  .00000620  00000-0  20586-3 0  9998", "Line2": "2 47068  74.0302 179.8791 0024010 277.2583  82.5842 14.39732572503758"}, {"id": 47069, "Line1": "1 47069U 93036BXZ 21274.33968443  .00001187  00000-0  34680-3 0  9994", "Line2": "2 47069  74.0304 145.3435 0017296 179.3468 180.7715 14.45038064501701"}, {"id": 47070, "Line1": "1 47070U 93036BYA 21274.33267507  .00001856  00000-0  46696-3 0  9992", "Line2": "2 47070  74.0700 117.3823 0056006 167.6088   7.2809 14.50990249415948"}, {"id": 47071, "Line1": "1 47071U 93036BYB 21274.01113687  .00002625  00000-0  11962-2 0  9999", "Line2": "2 47071  73.9305 163.3009 0167268  23.8725 337.0057 14.14981529392538"}, {"id": 47072, "Line1": "1 47072U 93036BYC 21274.25841257  .00002055  00000-0  64293-3 0  9990", "Line2": "2 47072  74.0377 241.6127 0072689 321.6824  37.9177 14.39841163390164"}, {"id": 47073, "Line1": "1 47073U 93036BYD 21274.89996126  .00000205  00000-0  13442-3 0  9992", "Line2": "2 47073  74.0854 338.6027 0170104  27.5914 333.4120 14.00933875388725"}, {"id": 47074, "Line1": "1 47074U 93036BYE 21274.50788906  .00001193  00000-0  51593-3 0  9992", "Line2": "2 47074  74.0943 182.8785 0176311 241.1215 295.5834 14.17466062361761"}, {"id": 47075, "Line1": "1 47075U 93036BYF 21267.56055156  .00003460  00000-0  68226-3 0  9995", "Line2": "2 47075  74.0153  17.2750 0013596  87.3286 287.2395 14.62833743288910"}, {"id": 47076, "Line1": "1 47076U 93036BYG 21274.34796476  .00002218  00000-0  59061-3 0  9994", "Line2": "2 47076  74.0081 146.5698 0036051 210.0628 269.8971 14.48734636480256"}, {"id": 47077, "Line1": "1 47077U 93036BYH 21274.90814993  .00002945  00000-0  51297-3 0  9992", "Line2": "2 47077  74.1271 351.5427 0087390 327.3627 153.9168 14.66038144404966"}, {"id": 47116, "Line1": "1 47116U 93036BYJ 21274.48529228  .00001094  00000-0  24354-3 0  9991", "Line2": "2 47116  74.0418 333.9990 0045706 102.1779 317.3522 14.57554635369826"}, {"id": 47117, "Line1": "1 47117U 93036BYK 21274.59356210  .00014565  00000-0  17357-2 0  9994", "Line2": "2 47117  74.0155 232.2348 0011156 260.0514  99.9405 14.84287026387163"}, {"id": 47118, "Line1": "1 47118U 93036BYL 21274.71833260  .00013840  00000-0  13146-2 0  9991", "Line2": "2 47118  74.0413  78.4323 0057262 144.5699 215.9310 14.92270231378313"}, {"id": 47119, "Line1": "1 47119U 93036BYM 21273.98168146  .00001246  00000-0  63984-3 0  9997", "Line2": "2 47119  74.0868  16.9874 0202976  72.3042  49.4026 14.06203353384115"}, {"id": 48420, "Line1": "1 48420U 93036BYN 21272.61743593  .00002758  00000-0  60522-3 0  9991", "Line2": "2 48420  74.0486  33.3309 0017140 142.8381 217.3973 14.58002559416664"}];